{"fetched_at":"2026-03-29T16:36:15Z","count":15609,"tles":[{"name":"STARLINK-30436","line1":"1 57880U 23144S   26087.28348380  .00009760  00000+0  36357-3 0  9999","line2":"2 57880  43.0014 179.9673 0001380 264.3353  95.7341 15.27595242140480","category":"Starlink"}]}