{
  "norad_id": 57880,
  "name": "STARLINK-30436",
  "history": [
    {
      "epoch": "2026-03-28T06:48:13.000320Z",
      "apogee_km": 483.9502937708412,
      "perigee_km": 482.0566190048785,
      "latitude_deg": -1.9033744451438143e-05,
      "longitude_deg": -107.79303836676021,
      "height_km": 482.87373856473124,
      "semi_major_axis_km": 6861.14045638786,
      "eccentricity": 0.000138,
      "inclination_deg": 43.0014,
      "raan_deg": 179.9673,
      "arg_perigee_deg": 264.3353,
      "mean_anomaly_deg": 95.7341,
      "mean_motion_rev_day": 15.27595242
    }
  ]
}